{"spkid": "50588088", "covariance": {"labels": ["e", "q", "tp", "node", "peri", "i"], "elements": [{"value": ".2992597650460173", "title": "eccentricity", "units": null, "sigma": 4.70747120080025e-08, "name": "e", "label": "e"}, {"label": "q", "title": "perihelion distance", "value": ".833176925221252", "units": "au", "name": "q", "sigma": 5.71096124922542e-08}, {"label": "tp", "name": "tp", "sigma": 3.75608715709945e-05, "title": "time of perihelion passage", "value": "2457704.336375688533", "units": "TDB"}, {"label": "node", "units": "deg", "value": "46.60650497773126", "title": "longitude of the ascending node", "sigma": 2.30852827754702e-05, "name": "om"}, {"label": "peri", "name": "w", "sigma": 3.06594933678795e-05, "value": "278.1298974512961", "title": "argument of perihelion", "units": "deg"}, {"label": "i", "units": "deg", "title": "inclination", "value": "11.83621214157662", "sigma": 1.89859788217968e-05, "name": "i"}], "data": [["2.216028510636379E-15", "-2.686443910247689E-15", "-8.708657764350379E-13", "-1.191995432553879E-13", "-7.217905601302731E-13", "1.430607481528271E-13"], ["-2.686443910247689E-15", "3.261507839015441E-15", "1.114894314222489E-12", "1.550966168153062E-13", "9.07721178259602E-13", "-1.820601395548657E-13"], ["-8.708657764350379E-13", "1.114894314222489E-12", "1.410819073172741E-9", "3.370566046285681E-10", "8.350288739388563E-10", "-1.400402718288217E-10"], ["-1.191995432553879E-13", "1.550966168153062E-13", "3.370566046285681E-10", "5.329302808234229E-10", "-2.40237241221631E-10", "3.082302528211982E-10"], ["-7.217905601302731E-13", "9.07721178259602E-13", "8.350288739388563E-10", "-2.40237241221631E-10", "9.400045335750446E-10", "-4.121258523247814E-10"], ["1.430607481528271E-13", "-1.820601395548657E-13", "-1.400402718288217E-10", "3.082302528211982E-10", "-4.121258523247814E-10", "3.604673918217184E-10"]], "epoch": "2457735.5"}, "elements": [{"label": "e", "units": null, "title": "eccentricity", "value": ".2992549889989075", "sigma": "4.7252E-8", "name": "e"}, {"label": "a", "units": "au", "value": "1.189003150895974", "title": "semi-major axis", "sigma": "3.0294E-9", "name": "a"}, {"label": "q", "sigma": "5.7165E-8", "name": "q", "units": "au", "title": "perihelion distance", "value": ".8331880260549331"}, {"title": "inclination; angle with respect to x-y ecliptic plane", "value": "11.83560632464192", "units": "deg", "sigma": "1.8984E-5", "name": "i", "label": "i"}, {"label": "node", "title": "longitude of the ascending node", "value": "46.56271881574511", "units": "deg", "name": "om", "sigma": "2.3105E-5"}, {"label": "peri", "units": "deg", "title": "argument of perihelion", "value": "278.125145448885", "sigma": "3.062E-5", "name": "w"}, {"title": "mean anomaly", "value": "137.7967170175818", "units": "deg", "name": "ma", "sigma": "3.8691E-5", "label": "M"}, {"sigma": "5.0256E-5", "name": "tp", "title": "time of perihelion passage", "value": "2461019.236940917646", "units": "TDB", "label": "tp"}, {"label": "period", "name": "per", "sigma": "1.8098E-6", "units": "d", "title": "sidereal orbital period", "value": "473.5577354961324"}, {"label": "n", "name": "n", "sigma": "2.9053E-9", "units": "deg/d", "value": ".7602029763548022", "title": "mean motion"}, {"label": "Q", "sigma": "3.9359E-9", "name": "ad", "title": "aphelion distance", "value": "1.544818275737015", "units": "au"}], "epoch": "2461200.5"}